[{"OBJECT_NAME":"STARLINK-6198","OBJECT_ID":"2023-078B","EPOCH":"2026-01-09T15:36:43.439328","MEAN_MOTION":14.98326833,"ECCENTRICITY":0.00028378,"INCLINATION":70.0007,"RA_OF_ASC_NODE":113.18,"ARG_OF_PERICENTER":266.4361,"MEAN_ANOMALY":93.6474,"EPHEMERIS_TYPE":0,"CLASSIFICATION_TYPE":"U","NORAD_CAT_ID":56768,"ELEMENT_SET_NO":999,"REV_AT_EPOCH":14433,"BSTAR":3.5718506e-5,"MEAN_MOTION_DOT":3.33e-6,"MEAN_MOTION_DDOT":0},{"OBJECT_NAME":"STARLINK-6342","OBJECT_ID":"2023-078D","EPOCH":"2026-01-09T15:37:38.696448","MEAN_MOTION":14.98325605,"ECCENTRICITY":0.00030448,"INCLINATION":70.0004,"RA_OF_ASC_NODE":153.3166,"ARG_OF_PERICENTER":269.286,"MEAN_ANOMALY":90.795,"EPHEMERIS_TYPE":0,"CLASSIFICATION_TYPE":"U","NORAD_CAT_ID":56770,"ELEMENT_SET_NO":999,"REV_AT_EPOCH":14334,"BSTAR":-3.598137e-5,"MEAN_MOTION_DOT":-5.22e-6,"MEAN_MOTION_DDOT":0},{"OBJECT_NAME":"STARLINK-6275","OBJECT_ID":"2023-078F","EPOCH":"2026-01-09T15:31:23.597760","MEAN_MOTION":14.98327321,"ECCENTRICITY":0.00031407,"INCLINATION":70.0004,"RA_OF_ASC_NODE":153.2998,"ARG_OF_PERICENTER":269.8374,"MEAN_ANOMALY":90.2425,"EPHEMERIS_TYPE":0,"CLASSIFICATION_TYPE":"U","NORAD_CAT_ID":56772,"ELEMENT_SET_NO":999,"REV_AT_EPOCH":14334,"BSTAR":1.5668886e-5,"MEAN_MOTION_DOT":9.4e-7,"MEAN_MOTION_DDOT":0},{"OBJECT_NAME":"STARLINK-6296","OBJECT_ID":"2023-078G","EPOCH":"2026-01-09T14:48:21.272832","MEAN_MOTION":14.98324468,"ECCENTRICITY":0.00031416,"INCLINATION":70.0007,"RA_OF_ASC_NODE":93.5716,"ARG_OF_PERICENTER":270.9692,"MEAN_ANOMALY":89.1107,"EPHEMERIS_TYPE":0,"CLASSIFICATION_TYPE":"U","NORAD_CAT_ID":56773,"ELEMENT_SET_NO":999,"REV_AT_EPOCH":14481,"BSTAR":3.555261e-5,"MEAN_MOTION_DOT":3.31e-6,"MEAN_MOTION_DDOT":0},{"OBJECT_NAME":"STARLINK-6190","OBJECT_ID":"2023-078H","EPOCH":"2026-01-09T16:01:27.062112","MEAN_MOTION":14.98325711,"ECCENTRICITY":0.0003111,"INCLINATION":70.0001,"RA_OF_ASC_NODE":153.3698,"ARG_OF_PERICENTER":270.5692,"MEAN_ANOMALY":89.5111,"EPHEMERIS_TYPE":0,"CLASSIFICATION_TYPE":"U","NORAD_CAT_ID":56774,"ELEMENT_SET_NO":999,"REV_AT_EPOCH":14334,"BSTAR":-4.0276868e-5,"MEAN_MOTION_DOT":-5.73e-6,"MEAN_MOTION_DDOT":0},{"OBJECT_NAME":"STARLINK-6292","OBJECT_ID":"2023-078J","EPOCH":"2026-01-09T14:42:20.857824","MEAN_MOTION":14.98319933,"ECCENTRICITY":0.0002999,"INCLINATION":70.0004,"RA_OF_ASC_NODE":93.5557,"ARG_OF_PERICENTER":268.1195,"MEAN_ANOMALY":91.962,"EPHEMERIS_TYPE":0,"CLASSIFICATION_TYPE":"U","NORAD_CAT_ID":56775,"ELEMENT_SET_NO":999,"REV_AT_EPOCH":14481,"BSTAR":2.7285319e-5,"MEAN_MOTION_DOT":2.33e-6,"MEAN_MOTION_DDOT":0},{"OBJECT_NAME":"STARLINK-6274","OBJECT_ID":"2023-078K","EPOCH":"2026-01-09T15:18:43.530912","MEAN_MOTION":14.98327296,"ECCENTRICITY":0.00030399,"INCLINATION":70.0004,"RA_OF_ASC_NODE":113.5292,"ARG_OF_PERICENTER":268.9449,"MEAN_ANOMALY":91.1362,"EPHEMERIS_TYPE":0,"CLASSIFICATION_TYPE":"U","NORAD_CAT_ID":56776,"ELEMENT_SET_NO":999,"REV_AT_EPOCH":14432,"BSTAR":-4.5184282e-5,"MEAN_MOTION_DOT":-6.32e-6,"MEAN_MOTION_DDOT":0},{"OBJECT_NAME":"STARLINK-5582","OBJECT_ID":"2023-078L","EPOCH":"2026-01-09T14:18:59.200992","MEAN_MOTION":14.98323265,"ECCENTRICITY":0.00030923,"INCLINATION":70.0009,"RA_OF_ASC_NODE":133.6543,"ARG_OF_PERICENTER":275.9518,"MEAN_ANOMALY":84.1289,"EPHEMERIS_TYPE":0,"CLASSIFICATION_TYPE":"U","NORAD_CAT_ID":56777,"ELEMENT_SET_NO":999,"REV_AT_EPOCH":14382,"BSTAR":-3.9498231e-5,"MEAN_MOTION_DOT":-5.64e-6,"MEAN_MOTION_DDOT":0},{"OBJECT_NAME":"STARLINK-6304","OBJECT_ID":"2023-078M","EPOCH":"2026-01-09T15:12:43.572096","MEAN_MOTION":14.98321853,"ECCENTRICITY":0.00031108,"INCLINATION":70.0005,"RA_OF_ASC_NODE":113.5136,"ARG_OF_PERICENTER":271.2652,"MEAN_ANOMALY":88.8151,"EPHEMERIS_TYPE":0,"CLASSIFICATION_TYPE":"U","NORAD_CAT_ID":56778,"ELEMENT_SET_NO":999,"REV_AT_EPOCH":14432,"BSTAR":-0.00019894984,"MEAN_MOTION_DOT":-2.466e-5,"MEAN_MOTION_DDOT":0},{"OBJECT_NAME":"STARLINK-6231","OBJECT_ID":"2023-078N","EPOCH":"2026-01-09T14:36:39.504384","MEAN_MOTION":14.98324479,"ECCENTRICITY":0.00030747,"INCLINATION":70.0004,"RA_OF_ASC_NODE":113.4261,"ARG_OF_PERICENTER":269.9021,"MEAN_ANOMALY":90.1786,"EPHEMERIS_TYPE":0,"CLASSIFICATION_TYPE":"U","NORAD_CAT_ID":56779,"ELEMENT_SET_NO":999,"REV_AT_EPOCH":14431,"BSTAR":-1.7244442e-5,"MEAN_MOTION_DOT":-2.99e-6,"MEAN_MOTION_DDOT":0},{"OBJECT_NAME":"STARLINK-5963","OBJECT_ID":"2023-078P","EPOCH":"2026-01-09T15:49:18.797376","MEAN_MOTION":14.9832167,"ECCENTRICITY":0.00032257,"INCLINATION":70.0009,"RA_OF_ASC_NODE":133.0915,"ARG_OF_PERICENTER":269.9189,"MEAN_ANOMALY":90.1601,"EPHEMERIS_TYPE":0,"CLASSIFICATION_TYPE":"U","NORAD_CAT_ID":56780,"ELEMENT_SET_NO":999,"REV_AT_EPOCH":14384,"BSTAR":-3.9695495e-5,"MEAN_MOTION_DOT":-5.67e-6,"MEAN_MOTION_DDOT":0},{"OBJECT_NAME":"STARLINK-5989","OBJECT_ID":"2023-078Q","EPOCH":"2026-01-09T15:25:03.729792","MEAN_MOTION":14.98329916,"ECCENTRICITY":0.00031293,"INCLINATION":70.0017,"RA_OF_ASC_NODE":133.4114,"ARG_OF_PERICENTER":267.5751,"MEAN_ANOMALY":92.5049,"EPHEMERIS_TYPE":0,"CLASSIFICATION_TYPE":"U","NORAD_CAT_ID":56781,"ELEMENT_SET_NO":999,"REV_AT_EPOCH":14383,"BSTAR":0.00033403445,"MEAN_MOTION_DOT":3.895e-5,"MEAN_MOTION_DDOT":0},{"OBJECT_NAME":"STARLINK-6352","OBJECT_ID":"2023-078R","EPOCH":"2026-01-09T15:06:42.486624","MEAN_MOTION":14.98328696,"ECCENTRICITY":0.00033304,"INCLINATION":70.0004,"RA_OF_ASC_NODE":113.4998,"ARG_OF_PERICENTER":273.2185,"MEAN_ANOMALY":86.8593,"EPHEMERIS_TYPE":0,"CLASSIFICATION_TYPE":"U","NORAD_CAT_ID":56782,"ELEMENT_SET_NO":999,"REV_AT_EPOCH":14432,"BSTAR":2.6890581e-5,"MEAN_MOTION_DOT":2.28e-6,"MEAN_MOTION_DDOT":0},{"OBJECT_NAME":"STARLINK-6357","OBJECT_ID":"2023-078S","EPOCH":"2026-01-09T14:54:41.602176","MEAN_MOTION":14.98323293,"ECCENTRICITY":0.00031308,"INCLINATION":70.0006,"RA_OF_ASC_NODE":113.4711,"ARG_OF_PERICENTER":270.9883,"MEAN_ANOMALY":89.0918,"EPHEMERIS_TYPE":0,"CLASSIFICATION_TYPE":"U","NORAD_CAT_ID":56783,"ELEMENT_SET_NO":999,"REV_AT_EPOCH":14432,"BSTAR":-7.2852336e-5,"MEAN_MOTION_DOT":-9.62e-6,"MEAN_MOTION_DDOT":0},{"OBJECT_NAME":"STARLINK-6354","OBJECT_ID":"2023-078T","EPOCH":"2026-01-09T15:00:42.170976","MEAN_MOTION":14.98324811,"ECCENTRICITY":0.0003116,"INCLINATION":70.0007,"RA_OF_ASC_NODE":113.4862,"ARG_OF_PERICENTER":270.2835,"MEAN_ANOMALY":89.7967,"EPHEMERIS_TYPE":0,"CLASSIFICATION_TYPE":"U","NORAD_CAT_ID":56784,"ELEMENT_SET_NO":999,"REV_AT_EPOCH":14432,"BSTAR":-3.8386872e-5,"MEAN_MOTION_DOT":-5.51e-6,"MEAN_MOTION_DDOT":0},{"OBJECT_NAME":"STARLINK-5931","OBJECT_ID":"2023-078U","EPOCH":"2026-01-09T15:37:05.082528","MEAN_MOTION":14.98325342,"ECCENTRICITY":0.00027539,"INCLINATION":70.0009,"RA_OF_ASC_NODE":133.4412,"ARG_OF_PERICENTER":265.3794,"MEAN_ANOMALY":94.705,"EPHEMERIS_TYPE":0,"CLASSIFICATION_TYPE":"U","NORAD_CAT_ID":56785,"ELEMENT_SET_NO":999,"REV_AT_EPOCH":14452,"BSTAR":-4.3149811e-5,"MEAN_MOTION_DOT":-6.08e-6,"MEAN_MOTION_DDOT":0},{"OBJECT_NAME":"STARLINK-6341","OBJECT_ID":"2023-078V","EPOCH":"2026-01-09T14:48:40.687776","MEAN_MOTION":14.98326679,"ECCENTRICITY":0.00030598,"INCLINATION":70.0005,"RA_OF_ASC_NODE":113.4566,"ARG_OF_PERICENTER":268.9301,"MEAN_ANOMALY":91.1508,"EPHEMERIS_TYPE":0,"CLASSIFICATION_TYPE":"U","NORAD_CAT_ID":56786,"ELEMENT_SET_NO":999,"REV_AT_EPOCH":14432,"BSTAR":-3.7334613e-5,"MEAN_MOTION_DOT":-5.38e-6,"MEAN_MOTION_DDOT":0},{"OBJECT_NAME":"STARLINK-6326","OBJECT_ID":"2023-078W","EPOCH":"2026-01-09T15:48:44.799840","MEAN_MOTION":14.98329264,"ECCENTRICITY":0.00029972,"INCLINATION":70.0008,"RA_OF_ASC_NODE":113.2027,"ARG_OF_PERICENTER":269.305,"MEAN_ANOMALY":90.7766,"EPHEMERIS_TYPE":0,"CLASSIFICATION_TYPE":"U","NORAD_CAT_ID":56787,"ELEMENT_SET_NO":999,"REV_AT_EPOCH":14433,"BSTAR":-1.5442429e-5,"MEAN_MOTION_DOT":-2.77e-6,"MEAN_MOTION_DDOT":0},{"OBJECT_NAME":"STARLINK-6336","OBJECT_ID":"2023-078X","EPOCH":"2026-01-09T14:42:39.804480","MEAN_MOTION":14.98327529,"ECCENTRICITY":0.00032613,"INCLINATION":70.0005,"RA_OF_ASC_NODE":113.4419,"ARG_OF_PERICENTER":269.0434,"MEAN_ANOMALY":91.0351,"EPHEMERIS_TYPE":0,"CLASSIFICATION_TYPE":"U","NORAD_CAT_ID":56788,"ELEMENT_SET_NO":999,"REV_AT_EPOCH":14432,"BSTAR":1.7528195e-5,"MEAN_MOTION_DOT":1.16e-6,"MEAN_MOTION_DDOT":0},{"OBJECT_NAME":"STARLINK-6345","OBJECT_ID":"2023-078Z","EPOCH":"2026-01-09T14:18:18.098784","MEAN_MOTION":14.98321863,"ECCENTRICITY":0.00030016,"INCLINATION":69.9999,"RA_OF_ASC_NODE":93.4983,"ARG_OF_PERICENTER":268.8118,"MEAN_ANOMALY":91.2697,"EPHEMERIS_TYPE":0,"CLASSIFICATION_TYPE":"U","NORAD_CAT_ID":56790,"ELEMENT_SET_NO":999,"REV_AT_EPOCH":14481,"BSTAR":-6.8489295e-5,"MEAN_MOTION_DOT":-9.1e-6,"MEAN_MOTION_DDOT":0},{"OBJECT_NAME":"STARLINK-5977","OBJECT_ID":"2023-078AA","EPOCH":"2026-01-09T14:42:58.446144","MEAN_MOTION":14.98334246,"ECCENTRICITY":0.00031716,"INCLINATION":70.0001,"RA_OF_ASC_NODE":133.3108,"ARG_OF_PERICENTER":269.5373,"MEAN_ANOMALY":90.5423,"EPHEMERIS_TYPE":0,"CLASSIFICATION_TYPE":"U","NORAD_CAT_ID":56791,"ELEMENT_SET_NO":999,"REV_AT_EPOCH":14383,"BSTAR":4.4965105e-5,"MEAN_MOTION_DOT":4.44e-6,"MEAN_MOTION_DDOT":0},{"OBJECT_NAME":"STARLINK-6046","OBJECT_ID":"2023-078AB","EPOCH":"2026-01-09T15:43:05.547648","MEAN_MOTION":14.98329241,"ECCENTRICITY":0.00024906,"INCLINATION":70.0006,"RA_OF_ASC_NODE":133.4564,"ARG_OF_PERICENTER":276.6821,"MEAN_ANOMALY":83.4055,"EPHEMERIS_TYPE":0,"CLASSIFICATION_TYPE":"U","NORAD_CAT_ID":56792,"ELEMENT_SET_NO":999,"REV_AT_EPOCH":14383,"BSTAR":-2.6433041e-5,"MEAN_MOTION_DOT":-4.08e-6,"MEAN_MOTION_DDOT":0},{"OBJECT_NAME":"STARLINK-6052","OBJECT_ID":"2023-078AC","EPOCH":"2026-01-09T15:07:03.054144","MEAN_MOTION":14.98320496,"ECCENTRICITY":0.00035144,"INCLINATION":70.0003,"RA_OF_ASC_NODE":133.3683,"ARG_OF_PERICENTER":270.3859,"MEAN_ANOMALY":89.6898,"EPHEMERIS_TYPE":0,"CLASSIFICATION_TYPE":"U","NORAD_CAT_ID":56793,"ELEMENT_SET_NO":999,"REV_AT_EPOCH":14383,"BSTAR":-9.019647e-6,"MEAN_MOTION_DOT":-2.01e-6,"MEAN_MOTION_DDOT":0}]
